IRVINE01                
1 43693U 18088D   21338.33173455  .00010560  00000+0  38398-3 0  9993
2 43693  85.0343  81.8654 0017052 114.8722 245.4298 15.27970443170354
PROXIMA I               
1 43694U 18088E   21338.35950172  .00003759  00000+0  15384-3 0  9997
2 43694  85.0324  82.6790 0020273 112.1934 248.1463 15.23761834170238
PROXIMA II              
1 43696U 18088G   21338.35819777  .00003665  00000+0  14999-3 0  9991
2 43696  85.0326  82.6921 0020345 112.1823 248.1581 15.23755524170235
FACSAT-1                
1 43721U 18096C   21338.50395277  .00006390  00000+0  21935-3 0  9996
2 43721  97.3728  54.3576 0016926  33.2974  94.8525 15.30354587168118
CENTAURI-2              
1 43722U 18096D   21338.17571610  .00008334  00000+0  27169-3 0  9992
2 43722  97.3765  55.2325 0016085  31.8676 328.3536 15.31940183168123
INNOSAT-2               
1 43738U 18096V   21338.50970106  .00013026  00000+0  36643-3 0  9990
2 43738  97.3841  60.4980 0019791  26.5179  30.3202 15.36418624168480
SIRION PATHFINDER-2     
1 43759U 18099B   21338.19585266  .00001005  00000+0  95247-4 0  9990
2 43759  97.6468  44.9022 0014040 189.6726 170.4227 14.95711139163856
CORVUS BC4              
1 43767U 18099K   21338.20630981  .00001132  00000+0  10820-3 0  9990
2 43767  97.6437  43.6904 0011321 193.4209 166.6712 14.95128739163791
MOVE-II                 
1 43780U 18099Y   21338.15790148  .00001566  00000+0  14333-3 0  9995
2 43780  97.6506  45.2029 0012743 199.8624 160.2103 14.96333338163843
SPACEBEE-7              
1 43816U 18099BL  21338.14990422  .00001782  00000+0  16184-3 0  9997
2 43816  97.6523  45.8693 0013192 182.9015 177.2132 14.96465747163436
SPACEBEE-5              
1 43817U 18099BM  21338.19507444  .00003372  00000+0  28885-3 0  9999
2 43817  97.6623  47.7592 0013290 183.5891 176.5238 14.98156701163512
SPACEBEE-6              
1 43818U 18099BN  21337.99874342  .00002128  00000+0  18978-3 0  9991
2 43818  97.6549  46.2821 0013311 183.8359 176.2763 14.96968581163587
SHIELDS 1               
1 43850U 18104B   21338.01196462  .00001540  00000+0  65109-4 0  9994
2 43850  85.0296 181.7307 0012287 264.6235  95.3605 15.22274136164762
STF-1                   
1 43852U 18104D   21338.28664812  .00003200  00000+0  13275-3 0  9995
2 43852  85.0325 182.1650 0011569 280.1983  79.7954 15.23387188164809
ZACUBE-2                
1 43907U 18111AH  21338.49610247  .00002133  00000+0  85916-4 0  9996
2 43907  97.2127 226.7426 0022413  53.9331  70.1109 15.25696190163550
LUME 1                  
1 43908U 18111AJ  21338.22523422  .00003947  00000+0  14997-3 0  9990
2 43908  97.2134 227.3751 0021499  52.0917 308.2262 15.27161860163570
AOBA VELOX-IV           
1 43940U 19003J   21338.10315414  .00007199  00000+0  25476-3 0  9991
2 43940  97.1573  15.8010 0022864 122.9565 237.3879 15.29185028160211
SPACEBEE-9              
1 44370U 19037F   21338.29314375  .00675416  19866-3  16916-2 0  9996
2 44370  44.9806 314.2033 0014641 133.4015 226.8115 15.94749974137836
MOVE-IIB                
1 44398U 19038N   21338.15478167  .00004505  00000+0  24492-3 0  9992
2 44398  97.6052 301.7099 0025311  82.8141 277.5970 15.14725695133441
SONATE                  
1 44400U 19038Q   21338.18002464  .00001748  00000+0  10200-3 0  9990
2 44400  97.6136 301.4293 0026135  85.0728 275.3490 15.13011410133391
LUCKY-7                 
1 44406U 19038W   21338.39851602  .00002310  00000+0  13175-3 0  9995
2 44406  97.6135 301.9851 0025642  83.8539 276.5613 15.13514233133446
BEESAT 9                
1 44412U 19038AC  21338.17318810  .00003235  00000+0  18052-3 0  9993
2 44412  97.6113 301.8502 0023544  89.0007 271.3921 15.14045018133129
JAISAT-1                
1 44419U 19038F   21338.15470680  .00002829  00000+0  15635-3 0  9994
2 44419  97.6116 302.5139 0022476  86.9629 273.4173 15.14529389133470
KRAKSAT                 
1 44427U 98067QM  21338.46105667  .00159518  00000+0  58239-3 0  9991
2 44427  51.6316 147.2706 0003713 225.5937 227.7921 15.87417698138254
DUCHIFAT-3              
1 44854U 19089C   21337.91349098  .00001145  00000+0  97042-4 0  9997
2 44854  36.9627 178.2693 0007256  60.6459 299.5037 14.99833091108557
EYESAT-NANO             
1 44877U 19092E   21338.44235430  .00004028  00000+0  19565-3 0  9995
2 44877  97.4592 159.8038 0011919 322.7324  37.3082 15.18967046108735
ORBITAL FACTORY 2 (OF-2)
1 45113U 19071C   21338.15026821  .00008885  00000+0  24529-3 0  9997
2 45113  51.6418 293.6821 0010955 181.4617 178.6337 15.37798969103261
M2 PATHFINDER           
1 45727U 20037E   21338.08969934  .00000366  00000+0  42097-4 0  9992
2 45727  97.7188 152.3481 0012316 330.0798  29.9709 14.91525384 77703
NETSAT-4                
1 46504U 20068U   21338.28761176  .00001190  00000+0  94407-4 0  9998
2 46504  97.7065 273.8652 0010038 261.0895  98.9193 15.02407913 64732
NETSAT-3                
1 46505U 20068V   21338.29835024  .00001574  00000+0  12349-3 0  9994
2 46505  97.7025 273.8184 0010571 272.5713  87.4302 15.02374873 64741
NETSAT-1                
1 46506U 20068W   21337.37643486  .00001934  00000+0  15090-3 0  9998
2 46506  97.7007 272.8563 0009749 288.0648  71.9512 15.02319416 64604
NETSAT-2                
1 46507U 20068X   21338.04887612  .00001666  00000+0  13071-3 0  9994
2 46507  97.7028 273.5230 0009705 299.9231  60.1105 15.02287337 64657
SPOC                    
1 46921U 98067RR  21338.33476191  .00022950  00000+0  28529-3 0  9999
2 46921  51.6380 206.0915 0001042  97.3715 262.7397 15.59869774 61317
BOBCAT-1                
1 46922U 98067RS  21338.22021904  .00045344  00000+0  45528-3 0  9996
2 46922  51.6391 201.6103 0002108 138.3199 221.7957 15.65015198 61335
NEUTRON-1               
1 46923U 98067RT  21338.17229153  .00024685  00000+0  30802-3 0  9991
2 46923  51.6390 207.2562 0001487  95.6346 264.4817 15.59723593 61320
1998-067RU              
1 46924U 98067RU  21338.29918716  .00264985  00000+0  10147-2 0  9993
2 46924  51.6272 187.6977 0006112 196.0513 164.0299 15.86144959 61549
DESCENT                 
1 46927U 98067RX  21337.21388694  .00020870  00000+0  26106-3 0  9999
2 46927  51.6395 212.1012 0002221  93.0749 267.0498 15.59767761 61082
SAI-1 NANOCONNECT-2     
1 47701U 21015C   21338.18062196 -.00000072  00000+0  00000+0 0  9996
2 47701  97.4440  51.4800 0014669  57.4489 302.8504 15.23651465 42455
WARP-01                 
1 47924U 98067SA  21338.38923125  .00035800  00000+0  45167-3 0  9997
2 47924  51.6376 212.4215 0003143  66.5657 293.5666 15.59224812 41235
RSP-01                  
1 47925U 98067SB  21337.95957669  .00027188  00000+0  36953-3 0  9993
2 47925  51.6398 215.5717 0000749 160.5918 199.5102 15.57387845 41138
TAUSAT-1                
1 47926U 98067SC  21338.25736732  .00034993  00000+0  43505-3 0  9997
2 47926  51.6385 212.2954 0000977 199.6756 160.4200 15.59627262 41192
TSURU                   
1 47927U 98067SD  21338.39138968  .00022645  00000+0  31752-3 0  9992
2 47927  51.6399 213.9550 0000592 178.9970 181.1023 15.56659681 41199
STARS-EC                
1 47928U 98067SE  21338.13178684  .00041873  00000+0  51802-3 0  9996
2 47928  51.6389 213.7091 0003645  68.7794 291.3588 15.59666837 41159
MAYA-2                  
1 47929U 98067SF  21337.10306675  .00022625  00000+0  31790-3 0  9994
2 47929  51.6399 220.3487 0000605 184.9450 175.1536 15.56603638 40953
HIROGARI (OPUSAT-II)    
1 47930U 98067SG  21338.37654790  .00039214  00000+0  47205-3 0  9990
2 47930  51.6391 211.6064 0001899 170.3235 189.7795 15.60419542 41220
GUARANISAT-1            
1 47931U 98067SH  21337.09979516  .00023063  00000+0  32338-3 0  9991
2 47931  51.6401 220.3318 0000623 190.1452 169.9527 15.56648103 40995
SMOG-1                  
1 47964U 21022AJ  21338.37648705  .00002284  00000+0  15301-3 0  9992
2 47964  97.5449 237.5298 0021387  84.5677 275.7990 15.07703477 37475
MMSATS-1                
1 47976U 98067SJ  21338.57497184  .00008901  00000+0  15315-3 0  9990
2 47976  51.6453 217.3840 0002156  30.9381 329.1735 15.51911562 39943
BCCSAT-1                
1 48041U 21022AK  21338.27115574  .00002958  00000+0  20054-3 0  9990
2 48041  97.5452 237.2409 0017484  82.5269 277.7944 15.07097434 37420
RAMSAT                  
1 48850U 98067SL  21337.97993605  .00015235  00000+0  24416-3 0  9994
2 48850  51.6408 220.1723 0004512  70.0416 290.1060 15.53289250 26824
SOAR                    
1 48851U 98067SM  21338.37485251  .00066081  00000+0  72542-3 0  9991
2 48851  51.6358 213.7846 0004750 114.1239 246.0252 15.62574793 26989
BD-28                   
1 48867U 98067SN  21338.27730880  .00017553  00000+0  27497-3 0  9997
2 48867  51.6400 218.4085 0004124 103.0782 257.0669 15.53802578 25625
MIR-SAT 1               
1 48868U 98067SP  21337.96759967  .00039325  00000+0  53013-3 0  9994
2 48868  51.6389 218.5903 0003810 105.9282 254.2130 15.57412207 25621
1998-067SR              
1 49272U 98067SR  21337.77830436  .00014399  00000+0  24499-3 0  9994
2 49272  51.6409 223.3137 0003243 308.6201  51.4498 15.51666240  9156
1998-067SS              
1 49273U 98067SS  21337.96538086  .00021737  00000+0  36069-3 0  9992
2 49273  51.6407 222.3144 0002824 303.4218  56.6501 15.52045497  9188
1998-067ST              
1 49274U 98067ST  21337.96703218  .00021427  00000+0  35636-3 0  9999
2 49274  51.6405 222.3252 0002765 301.4287  58.6432 15.51991352  9189
CUAVA-1                 
1 49275U 98067SU  21338.30433138  .00019217  00000+0  32003-3 0  9999
2 49275  51.6433 220.6057 0002746 320.3894 142.5275 15.52030505  9181
